ORBCOMM FM37            
1 33064U 08031E   24150.70068080  .00002131  00000+0  33145-3 0  9994
2 33064  48.4413   2.3906 0006113 178.8078 295.6155 14.76570406857319
ORBCOMM FM40            
1 33065U 08031F   24151.69379329  .00003406  00000+0  49617-3 0  9992
2 33065  48.4434 346.8700 0007615 191.5588 282.9425 14.77927866857942
VESSELSAT 1             
1 37840U 11058C   24152.50245581  .00000417  00000+0  83149-4 0  9991
2 37840  19.9615 243.1312 0013609 309.3255  50.5943 14.11161573652556
ORBCOMM FM109           
1 40086U 14040A   24152.49588866  .00001865  00000+0  45080-3 0  9994
2 40086  47.0040  17.0235 0001924 346.4210  13.6623 14.56693358525507
ORBCOMM FM107           
1 40087U 14040B   24151.77550659  .00001645  00000+0  40193-3 0  9990
2 40087  47.0068  21.3848 0001763 310.0986  49.9744 14.56703168525354
ORBCOMM FM106           
1 40088U 14040C   24151.35082421  .00001291  00000+0  25961-3 0  9995
2 40088  47.0595 235.0498 0016719  89.3928 270.8877 14.67133923527211
ORBCOMM FM111           
1 40089U 14040D   24151.92372892  .00003250  00000+0  42833-3 0  9997
2 40089  47.0025 130.8996 0032362 167.8768 192.2913 14.81937576533443
ORBCOMM FM104           
1 40090U 14040E   24151.83589084  .00001070  00000+0  28311-3 0  9995
2 40090  47.0065  50.2392 0017495 259.5018 100.3896 14.55194110524902
